NORAD_CAT_ID,OBJECT_NAME,OBJECT_TYPE,EPOCH,MEAN_MOTION,ECCENTRICITY,INCLINATION,RA_OF_ASC_NODE,ARG_OF_PERICENTER,MEAN_ANOMALY,BSTAR,MEAN_MOTION_DOT,MEAN_MOTION_DDOT,TLE_LINE0,TLE_LINE1,TLE_LINE2,SEMIMAJOR_AXIS,PERIOD,APOGEE,PERIGEE,DECAYED
54159.0,STARLINK-5294,PAYLOAD,2024-03-31 00:55:17,15.08839503,0.0001267,53.2179,315.4809,83.5546,276.5591,0.00058586,9.048e-05,0.0,0 STARLINK-5294,1 54159U 22141C   24091.03840159  .00009048  00000-0  58586-3 0  9996,2 54159  53.2179 315.4809 0001267  83.5546 276.5591 15.08839503 78732,6917.882,95.438,540.623,538.87,0.0
54159.0,STARLINK-5294,PAYLOAD,2024-03-31 21:35:18,15.08850951,0.0001133,53.2166,311.6161,82.0258,278.0863,0.0004508,6.896e-05,0.0,0 STARLINK-5294,1 54159U 22141C   24091.89951735  .00006896  00000-0  45080-3 0  9996,2 54159  53.2166 311.6161 0001133  82.0258 278.0863 15.08850951 78866,6917.847,95.437,540.496,538.928,0.0
54159.0,STARLINK-5294,PAYLOAD,2024-04-01 15:04:32,15.0885252,0.0002326,53.2174,308.3453,84.5504,275.5753,0.00024038,3.541e-05,0.0,0 STARLINK-5294,1 54159U 22141C   24092.62815488  .00003541  00000-0  24038-3 0  9996,2 54159  53.2174 308.3453 0002326  84.5504 275.5753 15.08852520 78974,6917.842,95.437,541.316,538.098,0.0
54159.0,STARLINK-5294,PAYLOAD,2024-04-01 21:26:05,15.08839823,0.0001162,53.2166,307.1568,101.731,258.3813,-7.9277e-05,-1.549e-05,0.0,0 STARLINK-5294,1 54159U 22141C   24092.89311475 -.00001549  00000-0 -79277-4 0  9996,2 54159  53.2166 307.1568 0001162 101.7310 258.3813 15.08839823 79016,6917.881,95.438,540.55,538.942,0.0
54159.0,STARLINK-5294,PAYLOAD,2024-04-02 06:58:23,15.08844449,0.0001175,53.2167,305.3726,99.4654,260.6471,0.00019105,2.754e-05,0.0,0 STARLINK-5294,1 54159U 22141C   24093.29055436  .00002754  00000-0  19105-3 0  9993,2 54159  53.2167 305.3726 0001175  99.4654 260.6471 15.08844449 79073,6917.867,95.437,540.545,538.919,0.0
54159.0,STARLINK-5294,PAYLOAD,2024-04-02 22:52:15,15.08834644,0.0001354,53.2176,302.4001,101.7948,258.3196,-3.956e-05,-9.17e-06,0.0,0 STARLINK-5294,1 54159U 22141C   24093.95296157 -.00000917  00000-0 -39560-4 0  9992,2 54159  53.2176 302.4001 0001354 101.7948 258.3196 15.08834644 79174,6917.897,95.438,540.698,538.825,0.0
54159.0,STARLINK-5294,PAYLOAD,2024-04-03 13:10:44,15.08839834,0.0001204,53.2166,299.724,97.6964,262.4165,0.00028124,4.191e-05,0.0,0 STARLINK-5294,1 54159U 22141C   24094.54912215  .00004191  00000-0  28124-3 0  9997,2 54159  53.2166 299.7240 0001204  97.6964 262.4165 15.08839834 79269,6917.881,95.438,540.579,538.913,0.0
54159.0,STARLINK-5294,PAYLOAD,2024-04-03 19:32:16,15.08839245,0.0001372,53.2176,298.5335,95.8603,264.2546,0.00021478,3.132e-05,0.0,0 STARLINK-5294,1 54159U 22141C   24094.81408337  .00003132  00000-0  21478-3 0  9991,2 54159  53.2176 298.5335 0001372  95.8603 264.2546 15.08839245 79302,6917.883,95.438,540.697,538.799,0.0
54159.0,STARLINK-5294,PAYLOAD,2024-04-04 06:39:58,15.08848328,0.0001194,53.2168,296.4501,86.538,273.5749,0.00022002,3.216e-05,0.0,0 STARLINK-5294,1 54159U 22141C   24095.27775859  .00003216  00000-0  22002-3 0  9995,2 54159  53.2168 296.4501 0001194  86.5380 273.5749 15.08848328 79373,6917.855,95.437,540.546,538.894,0.0
54159.0,STARLINK-5294,PAYLOAD,2024-04-04 19:23:03,15.08841983,0.0001257,53.2169,294.0725,91.728,268.3857,0.00020325,2.948e-05,0.0,0 STARLINK-5294,1 54159U 22141C   24095.80768320  .00002948  00000-0  20325-3 0  9996,2 54159  53.2169 294.0725 0001257  91.7280 268.3857 15.08841983 79454,6917.874,95.437,540.609,538.87,0.0
54159.0,STARLINK-5294,PAYLOAD,2024-04-04 22:33:50,15.088434,0.0001217,53.2169,293.4781,89.5742,270.539,0.00017146,2.442e-05,0.0,0 STARLINK-5294,1 54159U 22141C   24095.94016237  .00002442  00000-0  17146-3 0  9990,2 54159  53.2169 293.4781 0001217  89.5742 270.5390 15.08843400 79478,6917.87,95.437,540.577,538.893,0.0
54159.0,STARLINK-5294,PAYLOAD,2024-04-05 06:30:45,15.08845866,0.0001184,53.2166,291.9905,92.1924,267.9204,0.0001777,2.542e-05,0.0,0 STARLINK-5294,1 54159U 22141C   24096.27136042  .00002542  00000-0  17770-3 0  9998,2 54159  53.2166 291.9905 0001184  92.1924 267.9204 15.08845866 79529,6917.862,95.437,540.547,538.908,0.0
54159.0,STARLINK-5294,PAYLOAD,2024-04-05 22:24:36,15.08846886,0.0001253,53.2169,289.0161,92.0516,268.0619,0.00011548,1.551e-05,0.0,0 STARLINK-5294,1 54159U 22141C   24096.93375873  .00001551  00000-0  11548-3 0  9994,2 54159  53.2169 289.0161 0001253  92.0516 268.0619 15.08846886 79623,6917.859,95.437,540.591,538.858,0.0
54159.0,STARLINK-5294,PAYLOAD,2024-04-06 12:43:05,15.08843057,0.0001307,53.2164,286.34,93.4577,266.6564,0.00015032,2.105e-05,0.0,0 STARLINK-5294,1 54159U 22141C   24097.52991933  .00002105  00000-0  15032-3 0  9999,2 54159  53.2164 286.3400 0001307  93.4577 266.6564 15.08843057 79716,6917.871,95.437,540.64,538.832,0.0
54159.0,STARLINK-5294,PAYLOAD,2024-04-06 19:04:37,15.08840405,0.0001296,53.2161,285.1509,91.6737,268.4403,9.877e-05,1.284e-05,0.0,0 STARLINK-5294,1 54159U 22141C   24097.79488056  .00001284  00000-0  98770-4 0  9993,2 54159  53.2161 285.1509 0001296  91.6737 268.4403 15.08840405 79755,6917.879,95.438,540.641,538.848,0.0
54159.0,STARLINK-5294,PAYLOAD,2024-04-06 22:15:23,15.08841675,0.0001339,53.2167,284.5561,91.8101,268.3045,2.7221e-05,1.45e-06,0.0,0 STARLINK-5294,1 54159U 22141C   24097.92735985  .00000145  00000-0  27221-4 0  9992,2 54159  53.2167 284.5561 0001339  91.8101 268.3045 15.08841675 79770,6917.875,95.437,540.667,538.814,0.0
54159.0,STARLINK-5294,PAYLOAD,2024-04-07 12:33:52,15.08835548,0.0001444,53.2165,281.8802,93.3042,266.8115,0.00016527,2.343e-05,0.0,0 STARLINK-5294,1 54159U 22141C   24098.52352345  .00002343  00000-0  16527-3 0  9992,2 54159  53.2165 281.8802 0001444  93.3042 266.8115 15.08835548 79867,6917.894,95.438,540.758,538.76,0.0
54159.0,STARLINK-5294,PAYLOAD,2024-04-07 18:55:25,15.08831389,0.0001459,53.2182,280.69,97.0505,263.0653,0.00012926,1.769e-05,0.0,0 STARLINK-5294,1 54159U 22141C   24098.78848684  .00001769  00000-0  12926-3 0  9996,2 54159  53.2182 280.6900 0001459  97.0505 263.0653 15.08831389 79903,6917.907,95.438,540.781,538.762,0.0
54159.0,STARLINK-5294,PAYLOAD,2024-04-08 10:49:16,15.08839378,0.0001509,53.2202,277.7165,97.8259,262.2904,3.1126e-05,2.07e-06,0.0,0 STARLINK-5294,1 54159U 22141C   24099.45088336  .00000207  00000-0  31126-4 0  9991,2 54159  53.2202 277.7165 0001509  97.8259 262.2904 15.08839378 80005,6917.882,95.438,540.791,538.703,0.0
54159.0,STARLINK-5294,PAYLOAD,2024-04-08 18:46:11,15.0884067,0.0001379,53.2183,276.2296,96.8758,263.2391,9.0682e-05,1.156e-05,0.0,0 STARLINK-5294,1 54159U 22141C   24099.78208106  .00001156  00000-0  90682-4 0  9992,2 54159  53.2183 276.2296 0001379  96.8758 263.2391 15.08840670 80053,6917.878,95.438,540.697,538.789,0.0
54159.0,STARLINK-5294,PAYLOAD,2024-04-08 21:56:58,15.08840407,0.0001359,53.2187,275.6352,96.6989,263.4158,8.3493e-05,1.041e-05,0.0,0 STARLINK-5294,1 54159U 22141C   24099.91456146  .00001041  00000-0  83493-4 0  9991,2 54159  53.2187 275.6352 0001359  96.6989 263.4158 15.08840407 80078,6917.879,95.438,540.684,538.804,0.0
54159.0,STARLINK-5294,PAYLOAD,2024-04-09 10:40:03,15.08839649,0.0001467,53.2205,273.258,99.4599,260.6559,9.639e-05,1.246e-05,0.0,0 STARLINK-5294,1 54159U 22141C   24100.44448192  .00001246  00000-0  96390-4 0  9991,2 54159  53.2205 273.2580 0001467  99.4599 260.6559 15.08839649 80153,6917.881,95.438,540.761,538.732,0.0
54159.0,STARLINK-5294,PAYLOAD,2024-04-09 18:36:59,15.08836898,0.0001765,53.2233,271.7709,91.3877,268.7318,8.416e-05,1.051e-05,0.0,0 STARLINK-5294,1 54159U 22141C   24100.77568687  .00001051  00000-0  84160-4 0  9995,2 54159  53.2233 271.7709 0001765  91.3877 268.7318 15.08836898 80202,6917.89,95.438,540.976,538.534,0.0
54159.0,STARLINK-5294,PAYLOAD,2024-04-10 04:09:18,15.08835955,0.0001424,53.2173,269.9855,91.0074,269.1081,6.1319e-05,6.88e-06,0.0,0 STARLINK-5294,1 54159U 22141C   24101.17312858  .00000688  00000-0  61319-4 0  9993,2 54159  53.2173 269.9855 0001424  91.0074 269.1081 15.08835955 80265,6917.893,95.438,540.743,538.773,0.0
54159.0,STARLINK-5294,PAYLOAD,2024-04-10 20:03:09,15.08836995,0.0001361,53.2179,267.0112,84.1896,275.9251,2.6807e-05,1.39e-06,0.0,0 STARLINK-5294,1 54159U 22141C   24101.83553064  .00000139  00000-0  26807-4 0  9996,2 54159  53.2179 267.0112 0001361  84.1896 275.9251 15.08836995 80361,6917.89,95.438,540.696,538.813,0.0
54159.0,STARLINK-5294,PAYLOAD,2024-04-11 10:21:37,15.08861201,0.0001519,53.2183,264.3349,76.8641,283.2521,-0.00023671,-4.056e-05,0.0,0 STARLINK-5294,1 54159U 22141C   24102.43167885 -.00004056  00000-0 -23671-3 0  9994,2 54159  53.2183 264.3349 0001519  76.8641 283.2521 15.08861201 80459,6917.816,95.436,540.731,538.63,0.0
54159.0,STARLINK-5294,PAYLOAD,2024-04-11 18:18:33,15.08839937,0.0001301,53.2181,262.8473,79.2595,280.8543,0.00010191,1.334e-05,0.0,0 STARLINK-5294,1 54159U 22141C   24102.76288887  .00001334  00000-0  10191-3 0  9993,2 54159  53.2181 262.8473 0001301  79.2595 280.8543 15.08839937 80506,6917.881,95.438,540.646,538.846,0.0
54159.0,STARLINK-5294,PAYLOAD,2024-04-12 14:58:34,15.08838395,0.0001162,53.2173,258.9811,83.5098,276.6026,0.00011016,1.466e-05,0.0,0 STARLINK-5294,1 54159U 22141C   24103.62401103  .00001466  00000-0  11016-3 0  9990,2 54159  53.2173 258.9811 0001162  83.5098 276.6026 15.08838395 80630,6917.885,95.438,540.554,538.946,0.0
54159.0,STARLINK-5294,PAYLOAD,2024-04-13 10:03:12,15.08841936,0.0001255,53.2175,255.4135,79.0494,281.0639,0.00010126,1.324e-05,0.0,0 STARLINK-5294,1 54159U 22141C   24104.41888995  .00001324  00000-0  10126-3 0  9990,2 54159  53.2175 255.4135 0001255  79.0494 281.0639 15.08841936 80754,6917.874,95.437,540.608,538.871,0.0
54159.0,STARLINK-5294,PAYLOAD,2024-04-13 14:49:21,15.08841651,0.0001189,53.2173,254.5205,83.5798,276.5329,8.8063e-05,1.114e-05,0.0,0 STARLINK-5294,1 54159U 22141C   24104.61761030  .00001114  00000-0  88063-4 0  9995,2 54159  53.2173 254.5205 0001189  83.5798 276.5329 15.08841651 80785,6917.875,95.437,540.563,538.918,0.0
